SL-14 R/B               
1 20262U 89080C   25270.88655324  .00000349  00000+0  10173-3 0  9994
2 20262  82.5876 277.7213 1230240 196.8448 158.8098 12.50350032639807
DELTA 1 R/B             
1 20323U 89089B   25270.62105793  .00000706  00000+0  18426-3 0  9999
2 20323  97.0862 138.8867 0067650 278.1562  81.1966 14.50475322872090
ARIANE 40 R/B           
1 20443U 90005H   25270.64043164  .00000633  00000+0  21574-3 0  9994
2 20443  98.3350 330.9278 0009594 341.8183  18.2661 14.39708838869345
DELTA 2 R/B(1)          
1 20453U 90008B   25270.86155006  .00034464  00000+0  66671-3 0  9997
2 20453  35.6062 148.0425 0124206 209.0363 150.3417 15.38678855900916
COSMOS 2058             
1 20465U 90010A   25270.88456248  .00007189  00000+0  44519-3 0  9998
2 20465  82.4761 207.5846 0009649 164.3554 195.7976 15.09606721917665
SL-14 R/B               
1 20466U 90010B   25270.92777755  .00001056  00000+0  12547-3 0  9996
2 20466  82.5010  60.2250 0021194 114.6104 245.7322 14.83354517904352
SL-14 R/B               
1 20511U 90018B   25270.65401249  .00000991  00000+0  12206-3 0  9996
2 20511  82.5250  15.4661 0014996 268.4326  91.5170 14.81936095898437
HST                     
1 20580U 90037B   25270.60229101  .00010348  00000+0  37647-3 0  9996
2 20580  28.4683  70.1493 0002669 109.6281 250.4602 15.26531087748345
SL-16 R/B               
1 20625U 90046B   25270.46815807 -.00000043  00000+0  26345-5 0  9991
2 20625  70.9979 280.6985 0014860 202.4968 157.5505 14.14983357825307
COSMOS 2084             
1 20663U 90055A   25270.93863435  .00004783  00000+0  34889-3 0  9999
2 20663  62.7907 170.1352 0044769 165.6946 194.5434 15.04272527911822
SL-6 R/B(2)             
1 20666U 90055D   25270.91118076  .00004255  00000+0  33299-3 0  9992
2 20666  62.7834  86.9567 0012416 236.6653 123.3258 15.02488629913729
SL-8 R/B                
1 20775U 90078B   25270.87138354  .00038194  00000+0  12293-2 0  9993
2 20775  82.9089  36.9688 0389599 198.9283 159.7112 14.81565337785124
SL-8 R/B                
1 21088U 91006B   25270.56430216  .00000019  00000+0  39222-5 0  9990
2 21088  82.9387 291.3962 0023610 129.9694 340.9056 13.77470802741617
OKEAN-3                 
1 21397U 91039A   25270.69054605  .00004975  00000+0  36346-3 0  9994
2 21397  82.5160 134.6177 0014805 158.9073 201.2766 15.03365680840537
COSMOS 2151             
1 21422U 91042A   25270.61566001  .00003764  00000+0  30656-3 0  9990
2 21422  82.4956 240.8269 0010846 247.0878 112.9201 14.99222463838752
SL-14 R/B               
1 21423U 91042B   25270.74082580  .00000943  00000+0  11673-3 0  9994
2 21423  82.4969  12.9789 0018335  59.3591 300.9427 14.81635592828940
ERS-1                   
1 21574U 91050A   25270.89378368  .00000665  00000+0  22797-3 0  9998
2 21574  98.7943 280.0299 0031434 326.9953  32.9271 14.39273752792312
ARIANE 40 R/B           
1 21610U 91050F   25270.63819871  .00000711  00000+0  22611-3 0  9997
2 21610  98.2281 323.7704 0002875 186.1914 173.9242 14.42714474795489
INTERCOSMOS 25          
1 21819U 91086A   25270.75278140  .00003565  00000+0  69525-3 0  9993
2 21819  82.6057  48.4729 1489347 108.0665 268.7968 12.11408383476955
SL-8 R/B                
1 21876U 92008B   25270.69937513  .00000099  00000+0  86652-4 0  9990
2 21876  82.9300  28.9866 0033820 228.4754 244.6812 13.75939961687006
SL-8 R/B                
1 21938U 92020B   25270.48401094  .00000010  00000+0 -53423-5 0  9995
2 21938  82.9254 274.9592 0029860  35.7287 128.2396 13.75518409678690
USA 81                  
1 21949U 92023A   25270.88582054  .00000431  00000+0  15246-3 0  9995
2 21949  85.0081 225.3088 0001865 112.0366 248.1025 14.32280941 71482
COSMOS 2219             
1 22219U 92076A   25270.67948342 -.00000151  00000+0 -54462-4 0  9992
2 22219  71.0637 358.8271 0015402  88.2766 272.0120 14.14048393695332
SL-16 R/B               
1 22220U 92076B   25270.89355125 -.00000041  00000+0  36709-5 0  9991
2 22220  71.0013 171.2952 0013806 333.7688  97.1947 14.16823377698771
COSMOS 2221             
1 22236U 92080A   25270.54309443  .00004139  00000+0  37311-3 0  9996
2 22236  82.5021  75.2178 0015138  25.8223 334.3750 14.95262841756404
SL-16 R/B               
1 22285U 92093B   25270.63088516 -.00000090  00000+0 -21526-4 0  9995
2 22285  71.0239 346.5638 0005446 221.2209 138.8503 14.15410159690087
COSMOS 2228             
1 22286U 92094A   25270.86488810  .00004818  00000+0  42389-3 0  9992
2 22286  82.5202  33.0895 0019431 127.8653 232.4330 14.96181596751706
SL-16 R/B               
1 22566U 93016B   25270.93776990 -.00000167  00000+0 -61325-4 0  9992
2 22566  71.0082 197.0010 0011745 221.6980 138.3248 14.15269623679140
COSMOS 2242             
1 22626U 93024A   25270.91345598  .00004578  00000+0  40910-3 0  9996
2 22626  82.5178  62.2761 0017628 130.0982 230.1788 14.95589200756057
SL-16 R/B               
1 22803U 93059B   25270.64414944  .00000154  00000+0  99897-4 0  9998
2 22803  70.9930 354.9506 0014813  99.9007 260.3790 14.17192085656437
ARIANE 40 R/B           
1 22830U 93061H   25270.63748835  .00000510  00000+0  20304-3 0  9991
2 22830  98.5166 337.5181 0011492  51.4130 308.8082 14.32719996670756
COSMOS 2278             
1 23087U 94023A   25270.93014576  .00000452  00000+0  26092-3 0  9991
2 23087  71.0543 155.6112 0010894 276.0595  83.9286 14.14324563621793
SL-16 R/B               
1 23088U 94023B   25270.76857811 -.00000032  00000+0  82535-5 0  9991
2 23088  71.0010  53.0257 0004178 221.5568 138.5237 14.14984392623042
SL-16 R/B               
1 23343U 94074B   25270.72119734  .00000989  00000+0  14003-3 0  9995
2 23343  97.7308 303.0027 0007506  41.9825  77.3926 14.79155215663158
SL-16 R/B               
1 23405U 94077B   25270.60174592 -.00000131  00000+0 -42497-4 0  9997
2 23405  70.9845 335.5902 0001656 348.0052  12.1031 14.15530999593153
ARIANE 40+ R/B          
1 23561U 95021B   25270.71165875  .00000640  00000+0  21870-3 0  9990
2 23561  98.4739 339.1869 0005643 269.5642 201.5112 14.39604550595794
SL-16 R/B               
1 23705U 95058B   25270.74199939  .00000365  00000+0  21132-3 0  9996
2 23705  71.0220 162.3570 0012465 358.1554   1.9521 14.15463441544794
SL-16 R/B               
1 24298U 96051B   25270.92128656 -.00000055  00000+0 -30165-5 0  9992
2 24298  70.7618 159.7571 0014820   4.1189 356.0050 14.12393437498668
ORBVIEW 2 (SEASTAR)     
1 24883U 97037A   25270.93362835  .00000642  00000+0  24002-3 0  9998
2 24883  98.8409  66.1273 0002466 156.5142 203.6155 14.35325724485120
SL-16 R/B               
1 25400U 98043G   25270.87954545  .00000172  00000+0  90824-4 0  9994
2 25400  98.7974 218.3280 0010679 123.2530 236.9675 14.25995552415780
SL-16 R/B               
1 25407U 98045B   25270.90345087  .00000015  00000+0  31541-4 0  9999
2 25407  71.0116 163.9040 0009812 273.0390  86.9610 14.16154254404059
ISS (ZARYA)             
1 25544U 98067A   25270.82361721  .00021639  00000+0  39357-3 0  9996
2 25544  51.6325 158.3441 0001373 173.4686 186.6321 15.49453245531085
CZ-4B R/B               
1 25732U 99025C   25270.77734896  .00000161  00000+0  98532-4 0  9999
2 25732  98.6890 313.7066 0038194  93.3963  22.2286 14.18215086365074
OKEAN-O                 
1 25860U 99039A   25270.73320618  .00001444  00000+0  19798-3 0  9996
2 25860  97.9717 327.0516 0001762 106.1519 253.9887 14.79963963410280
SL-16 R/B               
1 25861U 99039B   25270.73463031  .00001278  00000+0  16992-3 0  9992
2 25861  98.0241 324.8368 0016123  68.2678 292.0249 14.81418689412737
DELTA 2 R/B             
1 25876U 99041E   25270.86665261  .00001368  00000+0  25851-3 0  9998
2 25876  51.7638 231.2221 0504985 228.0322 127.6535 14.11149864340031
HELIOS 1B               
1 25977U 99064A   25270.70063180  .00003122  00000+0  35668-3 0  9997
2 25977  98.1784 163.1294 0000760 131.1903 228.9377 14.86811129661031
TERRA                   
1 25994U 99068A   25270.92119671  .00000921  00000+0  19764-3 0  9994
2 25994  97.9868 325.3399 0002112  14.8485  90.2134 14.60817120371312
SL-16 R/B               
1 26070U 00006B   25270.73544876  .00000229  00000+0  14045-3 0  9990
2 26070  71.0008  80.4632 0014520  66.4802 293.7845 14.15787683325495
TITAN 4B R/B            
1 26474U 00047B   25270.88268301  .00005396  00000+0  35088-3 0  9995
2 26474  67.9890 137.7613 0046651 228.2605 131.4551 15.07873186368350
ENVISAT                 
1 27386U 02009A   25270.82742292  .00000320  00000+0  11758-3 0  9998
2 27386  98.3454 223.5470 0001236  90.7260 289.8920 14.38954767235754
IDEFIX & ARIANE 42P R/B 
1 27422U 02021B   25270.78380120  .00000684  00000+0  27718-3 0  9992
2 27422  98.5655 206.5127 0011099 311.7382  48.2851 14.30862482220724
AQUA                    
1 27424U 02022A   25270.91564437  .00002270  00000+0  46725-3 0  9997
2 27424  98.3903 230.6281 0002063  80.8425  12.7946 14.61522033244953
CZ-4B R/B               
1 27432U 02024C   25270.75683008  .00000119  00000+0  84256-4 0  9998
2 27432  98.9120 319.7454 0051007 125.0545 346.2741 14.14504995206206
MIDORI II (ADEOS-II)    
1 27597U 02056A   25270.89393120  .00000634  00000+0  26772-3 0  9993
2 27597  98.7491 223.5077 0002012  97.0979 263.0432 14.29122246187045
H-2A R/B                
1 27601U 02056E   25270.88402008  .00000717  00000+0  26699-3 0  9994
2 27601  98.2924 232.7126 0069263 287.2687 126.6621 14.33590981190783
CZ-4B R/B               
1 28059U 03049C   25270.94253311  .00001072  00000+0  25797-3 0  9996
2 28059  98.6714 254.6672 0048630   9.7766 350.4364 14.54786938162930
CZ-2C R/B               
1 28222U 04012C   25270.66915265  .00037571  00000+0  68774-3 0  9996
2 28222  97.7541 317.3500 0021121 182.4496 177.6654 15.49001500178929
SL-16 R/B               
1 28353U 04021B   25270.25071081  .00000385  00000+0  22531-3 0  9999
2 28353  71.0000 215.4728 0007147 281.8610  78.1711 14.14563352 99721
